SAUDISAT 1C             
1 27607U 02058C   23255.75367400  .00002411  00000+0  34626-3 0  9997
2 27607  64.5580 356.4170 0059719 206.2954 153.5116 14.77594262115160
SAUDISAT 2              
1 28371U 04025F   23256.41052093  .00000685  00000+0  16925-3 0  9998
2 28371  98.4421 220.8848 0025948 149.8851 210.3844 14.55031640 19143
SAUDISAT 3              
1 31118U 07012B   23256.37845668  .00000660  00000+0  11859-3 0  9997
2 31118  98.0184 199.0488 0014670 188.9716 171.1230 14.69785429879670
PISAT                   
1 41784U 16059B   23256.31384148  .00001556  00000+0  29755-3 0  9992
2 41784  97.8647 285.8179 0031358 173.0757 187.0886 14.64911216371966
FLYING LAPTOP           
1 42831U 17042G   23255.87266216  .00002147  00000+0  20932-3 0  9999
2 42831  97.3887  88.3363 0011992 295.5233  64.4748 14.93383966335572
SALSAT                  
1 46495U 20068K   23256.42948110  .00007525  00000+0  48399-3 0  9995
2 46495  97.7756 205.4485 0015355 172.9520 187.1926 15.08601227162379
